LEMUR-2-ROUNDTRIPPER    
1 62711U 25009DG  26188.18676830  .00006648  00000+0  48362-3 0  9996
2 62711  97.7223 270.8397 0004458  82.7690 277.4043 15.04138808 80630
LEMUR-2-MYNAMEISJEFF    
1 62712U 25009DH  26188.18521056  .00006692  00000+0  48688-3 0  9996
2 62712  97.7276 271.2311 0003603 116.4406 243.7189 15.04131043 80632
LEMUR-2-LEIA-PHILIP     
1 63246U 25052AN  26188.11769153  .00001985  00000+0  17584-3 0  9993
2 63246  97.6816  79.7311 0004857 140.0077 220.1504 14.97375287 71657
LEMUR-2-LIA-MARTIN      
1 63248U 25052AQ  26187.64800424  .00004626  00000+0  39684-3 0  9999
2 63248  97.6861  79.7730 0005203 111.5295 248.6482 14.97976249 71593
LEMUR-2-DELOITTE-1      
1 63259U 25052BB  26187.69387655  .00003288  00000+0  28529-3 0  9991
2 63259  97.6883  80.1499 0002286  65.5794 294.5666 14.97742162 71619
LEMUR-2-EMERSONROSE     
1 63261U 25052BD  26188.11702890  .00003699  00000+0  30820-3 0  9997
2 63261  97.6870  81.1613 0002747  74.2214 285.9312 14.99240564 71728
LEMUR-2-MARACHE-FRAN    
1 63262U 25052BE  26188.14529324  .00002737  00000+0  22321-3 0  9999
2 63262  97.6865  81.5468 0004512 290.2178  69.8560 15.00280659 71755
LEMUR-2-THEFALCONER     
1 63264U 25052BG  26188.12404301  .00003286  00000+0  28661-3 0  9999
2 63264  97.6845  80.1714 0000931  26.9375 333.1895 14.97533628 71679
LEMUR-2-UNTITLED-SC     
1 63351U 25061A   26188.18681166  .00002296  00000+0  13112-3 0  9993
2 63351  97.5648 163.4050 0018372 190.3319 169.7538 15.13612502 70614
LEMUR-2-ESPERANZA       
1 63352U 25061B   26187.89829421  .00003859  00000+0  21718-3 0  9996
2 63352  97.5652 163.2165 0017994 190.7024 169.3827 15.13718537 70578
LEMUR-2-KREMPEL-BRO2    
1 63353U 25061C   26187.98567911  .00002442  00000+0  13712-3 0  9992
2 63353  97.5702 163.8621 0019121 182.9645 177.1476 15.14142381 70604
LEMUR-2-THERMORAPTOR    
1 63354U 25061D   26187.90060481  .00002717  00000+0  15180-3 0  9991
2 63354  97.5706 163.8567 0018866 182.1683 177.9470 15.14223739 70594
LEMUR-2-NEUROSPICY      
1 63355U 25061E   26188.00292168  .00003183  00000+0  17677-3 0  9994
2 63355  97.5635 163.5694 0016635 184.7163 175.3914 15.14343860 70613
LEMUR-2-TILLINFINITY    
1 63356U 25061F   26187.89844351  .00002954  00000+0  16156-3 0  9994
2 63356  97.5620 163.7699 0018192 173.6212 186.5255 15.14925537 70627
LEMUR-2-KREMPEL-BRO1    
1 63357U 25061G   26187.87443875  .00003392  00000+0  18594-3 0  9994
2 63357  97.5621 163.6566 0018829 175.1467 184.9951 15.14733921 70615
LEMUR-2-LANGER2SPACE    
1 63358U 25061H   26187.97095904  .00002645  00000+0  14720-3 0  9999
2 63358  97.5624 163.5587 0016594 183.0174 177.0961 15.14427672 70618
LEMUR-2-BALTO           
1 63395U 25052BH  26188.12988148  .00004051  00000+0  32771-3 0  9998
2 63395  97.6926  81.5115 0005653 359.4096   0.7120 15.00313099 71754
LEMUR-2-KRISH           
1 64561U 25135AK  26188.13632123  .00004336  00000+0  38771-3 0  9998
2 64561  97.7759 302.8780 0001731 101.1147 259.0269 14.96400428 56904
LEMUR-2-HUBBLE-4        
1 64565U 25135AP  26188.16933993  .00001088  00000+0  10832-3 0  9993
2 64565  97.7713 301.8414 0001958 185.7191 174.4007 14.93668565 56858
LEMUR-2-SEJONG-2        
1 64586U 25135BL  26188.15985407  .00002412  00000+0  21540-3 0  9992
2 64586  97.7707 303.0477 0003173 254.8413 105.2457 14.96874255 56931
LEMUR-2-HUBBLE-5        
1 64840U 25135BT  26188.11404416  .00001323  00000+0  12888-3 0  9992
2 64840  97.7734 302.4471 0004095 270.5745  89.5005 14.94195154 56887
LEMUR-2-KARENDARRELL    
1 64841U 25135BU  26187.86049561  .00005890  00000+0  47253-3 0  9997
2 64841  97.7696 304.0402 0011589 131.2820 228.9403 15.00420938 56969
LEMUR-2-LUCILLE-ROSE    
1 65403U 25135BV  26187.90060431  .00005192  00000+0  41692-3 0  9992
2 65403  97.7718 304.1148 0013803 214.6490 145.3836 15.00422140 51590
LEMUR-2-AFFIE-WAUWIE    
1 66295U 25248C   26186.82496654  .00022785  00000+0  82702-3 0  9991
2 66295  45.3926  13.9564 0008364 202.7682 157.2838 15.27976863 37441
LEMUR-2-DEANANDMAEVE    
1 66678U 25276N   26188.13186521  .00004913  00000+0  23128-3 0  9992
2 66678  97.4199 261.2790 0004165 292.5892  67.4902 15.19992779 33445
LEMUR-2-STAS-GORBUK     
1 66686U 25276W   26188.15121066  .00004430  00000+0  21123-3 0  9993
2 66686  97.4234 261.3507 0003485 289.3119  70.7738 15.19603156 33443
LEMUR-2-TEODOR          
1 66768U 25276DG  26188.17884818  .00003808  00000+0  17344-3 0  9995
2 66768  97.4139 261.6395 0002346  96.4598 263.6905 15.21279534 33484
LEMUR-2-LAILA           
1 66776U 25276DQ  26188.14983786  .00004674  00000+0  21076-3 0  9994
2 66776  97.4163 261.7444 0002881 106.6204 253.5349 15.21504624 33489
LEMUR-2-CELIJO-SB-PK    
1 66781U 25276DW  26188.18125285  .00004351  00000+0  35219-3 0  9992
2 66781  97.5200 258.3001 0007430  83.9272 276.2798 15.00229806 25626
LEMUR-2-FINNIAN         
1 66782U 25276DX  26188.15331083  .00002687  00000+0  21743-3 0  9992
2 66782  97.5346 258.5193 0008124  28.2723 331.8940 15.00553278 22993
