OBJECT_NAME,OBJECT_ID,EPOCH,MEAN_MOTION,ECCENTRICITY,INCLINATION,RA_OF_ASC_NODE,ARG_OF_PERICENTER,MEAN_ANOMALY,EPHEMERIS_TYPE,CLASSIFICATION_TYPE,NORAD_CAT_ID,ELEMENT_SET_NO,REV_AT_EPOCH,BSTAR,MEAN_MOTION_DOT,MEAN_MOTION_DDOT
LEMUR-2-ROUNDTRIPPER,2025-009DG,2026-07-07T04:28:56.781120,15.04138808,.0004458,97.7223,270.8397,82.7690,277.4043,0,U,62711,999,8063,.48362E-3,.6648E-4,0
LEMUR-2-MYNAMEISJEFF,2025-009DH,2026-07-07T04:26:42.192384,15.04131043,.0003603,97.7276,271.2311,116.4406,243.7189,0,U,62712,999,8063,.48688E-3,.6692E-4,0
LEMUR-2-LEIA-PHILIP,2025-052AN,2026-07-07T02:49:28.548192,14.97375287,.0004857,97.6816,79.7311,140.0077,220.1504,0,U,63246,999,7165,.17584E-3,.1985E-4,0
LEMUR-2-LIA-MARTIN,2025-052AQ,2026-07-06T15:33:07.566336,14.97976249,.0005203,97.6861,79.7730,111.5295,248.6482,0,U,63248,999,7159,.39684E-3,.4626E-4,0
LEMUR-2-DELOITTE-1,2025-052BB,2026-07-06T16:39:10.933920,14.97742162,.0002286,97.6883,80.1499,65.5794,294.5666,0,U,63259,999,7161,.28529E-3,.3288E-4,0
LEMUR-2-EMERSONROSE,2025-052BD,2026-07-07T02:48:31.296960,14.99240564,.0002747,97.6870,81.1613,74.2214,285.9312,0,U,63261,999,7172,.3082E-3,.3699E-4,0
LEMUR-2-MARACHE-FRAN,2025-052BE,2026-07-07T03:29:13.335936,15.00280659,.0004512,97.6865,81.5468,290.2178,69.8560,0,U,63262,999,7175,.22321E-3,.2737E-4,0
LEMUR-2-THEFALCONER,2025-052BG,2026-07-07T02:58:37.316064,14.97533628,.0000931,97.6845,80.1714,26.9375,333.1895,0,U,63264,999,7167,.28661E-3,.3286E-4,0
LEMUR-2-UNTITLED-SC,2025-061A,2026-07-07T04:29:00.527424,15.13612502,.0018372,97.5648,163.4050,190.3319,169.7538,0,U,63351,999,7061,.13112E-3,.2296E-4,0
LEMUR-2-ESPERANZA,2025-061B,2026-07-06T21:33:32.619744,15.13718537,.0017994,97.5652,163.2165,190.7024,169.3827,0,U,63352,999,7057,.21718E-3,.3859E-4,0
LEMUR-2-KREMPEL-BRO2,2025-061C,2026-07-06T23:39:22.675104,15.14142381,.0019121,97.5702,163.8621,182.9645,177.1476,0,U,63353,999,7060,.13712E-3,.2442E-4,0
LEMUR-2-THERMORAPTOR,2025-061D,2026-07-06T21:36:52.255584,15.14223739,.0018866,97.5706,163.8567,182.1683,177.9470,0,U,63354,999,7059,.1518E-3,.2717E-4,0
LEMUR-2-NEUROSPICY,2025-061E,2026-07-07T00:04:12.433152,15.14343860,.0016635,97.5635,163.5694,184.7163,175.3914,0,U,63355,999,7061,.17677E-3,.3183E-4,0
LEMUR-2-TILLINFINITY,2025-061F,2026-07-06T21:33:45.519264,15.14925537,.0018192,97.5620,163.7699,173.6212,186.5255,0,U,63356,999,7062,.16156E-3,.2954E-4,0
LEMUR-2-KREMPEL-BRO1,2025-061G,2026-07-06T20:59:11.508000,15.14733921,.0018829,97.5621,163.6566,175.1467,184.9951,0,U,63357,999,7061,.18594E-3,.3392E-4,0
LEMUR-2-LANGER2SPACE,2025-061H,2026-07-06T23:18:10.861056,15.14427672,.0016594,97.5624,163.5587,183.0174,177.0961,0,U,63358,999,7061,.1472E-3,.2645E-4,0
LEMUR-2-BALTO,2025-052BH,2026-07-07T03:07:01.759872,15.00313099,.0005653,97.6926,81.5115,359.4096,0.7120,0,U,63395,999,7175,.32771E-3,.4051E-4,0
LEMUR-2-KRISH,2025-135AK,2026-07-07T03:16:18.154272,14.96400428,.0001731,97.7759,302.8780,101.1147,259.0269,0,U,64561,999,5690,.38771E-3,.4336E-4,0
LEMUR-2-HUBBLE-4,2025-135AP,2026-07-07T04:03:50.969952,14.93668565,.0001958,97.7713,301.8414,185.7191,174.4007,0,U,64565,999,5685,.10832E-3,.1088E-4,0
LEMUR-2-SEJONG-2,2025-135BL,2026-07-07T03:50:11.391648,14.96874255,.0003173,97.7707,303.0477,254.8413,105.2457,0,U,64586,999,5693,.2154E-3,.2412E-4,0
LEMUR-2-HUBBLE-5,2025-135BT,2026-07-07T02:44:13.415424,14.94195154,.0004095,97.7734,302.4471,270.5745,89.5005,0,U,64840,999,5688,.12888E-3,.1323E-4,0
LEMUR-2-KARENDARRELL,2025-135BU,2026-07-06T20:39:06.820704,15.00420938,.0011589,97.7696,304.0402,131.2820,228.9403,0,U,64841,999,5696,.47253E-3,.589E-4,0
LEMUR-2-LUCILLE-ROSE,2025-135BV,2026-07-06T21:36:52.212384,15.00422140,.0013803,97.7718,304.1148,214.6490,145.3836,0,U,65403,999,5159,.41692E-3,.5192E-4,0
LEMUR-2-AFFIE-WAUWIE,2025-248C,2026-07-05T19:47:57.109056,15.27976863,.0008364,45.3926,13.9564,202.7682,157.2838,0,U,66295,999,3744,.82702E-3,.22785E-3,0
LEMUR-2-DEANANDMAEVE,2025-276N,2026-07-07T03:09:53.154144,15.19992779,.0004165,97.4199,261.2790,292.5892,67.4902,0,U,66678,999,3344,.23128E-3,.4913E-4,0
LEMUR-2-STAS-GORBUK,2025-276W,2026-07-07T03:37:44.601024,15.19603156,.0003485,97.4234,261.3507,289.3119,70.7738,0,U,66686,999,3344,.21123E-3,.443E-4,0
LEMUR-2-TEODOR,2025-276DG,2026-07-07T04:17:32.482752,15.21279534,.0002346,97.4139,261.6395,96.4598,263.6905,0,U,66768,999,3348,.17344E-3,.3808E-4,0
LEMUR-2-LAILA,2025-276DQ,2026-07-07T03:35:45.991104,15.21504624,.0002881,97.4163,261.7444,106.6204,253.5349,0,U,66776,999,3348,.21076E-3,.4674E-4,0
LEMUR-2-CELIJO-SB-PK,2025-276DW,2026-07-07T04:21:00.246240,15.00229806,.000743,97.5200,258.3001,83.9272,276.2798,0,U,66781,999,2562,.35219E-3,.4351E-4,0
LEMUR-2-FINNIAN,2025-276DX,2026-07-07T03:40:46.055712,15.00553278,.0008124,97.5346,258.5193,28.2723,331.8940,0,U,66782,999,2299,.21743E-3,.2687E-4,0
